{
    "links": {
        "self": "http://www.neowsapp.com/rest/v1/neo/3430489?api_key=iIulBulltgU6a56xZRHN4H3l9WmuAYTsLGpBGhQ2"
    },
    "id": "3430489",
    "neo_reference_id": "3430489",
    "name": "(2008 TL26)",
    "designation": "2008 TL26",
    "nasa_jpl_url": "http://ssd.jpl.nasa.gov/sbdb.cgi?sstr=3430489",
    "absolute_magnitude_h": 24.7,
    "estimated_diameter": {
        "kilometers": {
            "estimated_diameter_min": 0.0305179233,
            "estimated_diameter_max": 0.0682401509
        },
        "meters": {
            "estimated_diameter_min": 30.5179232594,
            "estimated_diameter_max": 68.2401509401
        },
        "miles": {
            "estimated_diameter_min": 0.0189629525,
            "estimated_diameter_max": 0.0424024508
        },
        "feet": {
            "estimated_diameter_min": 100.1244233463,
            "estimated_diameter_max": 223.8850168104
        }
    },
    "is_potentially_hazardous_asteroid": false,
    "close_approach_data": [
        {
            "close_approach_date": "2008-10-09",
            "close_approach_date_full": "2008-Oct-09 03:03",
            "epoch_date_close_approach": 1223521380000,
            "relative_velocity": {
                "kilometers_per_second": "11.6908741131",
                "kilometers_per_hour": "42087.1468072046",
                "miles_per_hour": "26151.3163036211"
            },
            "miss_distance": {
                "astronomical": "0.1229886383",
                "lunar": "47.8425802987",
                "kilometers": "18398838.323880421",
                "miles": "11432508.0020189698"
            },
            "orbiting_body": "Earth"
        }
    ],
    "orbital_data": {
        "orbit_id": "6",
        "orbit_determination_date": "2017-04-06 09:02:36",
        "first_observation_date": "2008-10-09",
        "last_observation_date": "2008-10-10",
        "data_arc_in_days": 1,
        "observations_used": 25,
        "orbit_uncertainty": "9",
        "minimum_orbit_intersection": ".121849",
        "jupiter_tisserand_invariant": "3.076",
        "epoch_osculation": "2454749.5",
        "eccentricity": ".5771316244257865",
        "semi_major_axis": "2.643294857499119",
        "inclination": "17.89133270620493",
        "ascending_node_longitude": "198.507126971805",
        "orbital_period": "1569.70066926826",
        "perihelion_distance": "1.117765802554325",
        "perihelion_argument": "171.5110944611537",
        "aphelion_distance": "4.168823912443914",
        "perihelion_time": "2454743.758532011861",
        "mean_anomaly": "1.316766002714117",
        "mean_motion": ".2293430888118431",
        "equinox": "J2000",
        "orbit_class": {
            "orbit_class_type": "AMO",
            "orbit_class_description": "Near-Earth asteroid orbits similar to that of 1221 Amor",
            "orbit_class_range": "1.017 AU < q (perihelion) < 1.3 AU"
        }
    },
    "is_sentry_object": false
}